IRIDIUM 116             
1 43072U 17083C   25294.39734859  .00000256  00000+0  84231-4 0  9999
2 43072  86.3945  61.8093 0001679  93.2654 266.8734 14.34219995409941
IRIDIUM 130             
1 43073U 17083D   25295.41216414  .00000234  00000+0  76412-4 0  9994
2 43073  86.3963  61.6374 0001896  85.0041 275.1371 14.34216800410036
IRIDIUM 151             
1 43074U 17083E   25295.38679602  .00000067  00000+0  16889-4 0  9999
2 43074  86.3961  61.4482 0001790  92.3531 267.7870 14.34216406410056
IRIDIUM 134             
1 43075U 17083F   25295.42484184  .00000502  00000+0  17225-3 0  9992
2 43075  86.3959  61.4367 0001930  85.3343 274.8073 14.34213177410028
IRIDIUM 137             
1 43076U 17083G   25295.43753529  .00000302  00000+0  10066-3 0  9990
2 43076  86.3962  61.5196 0001641 106.1056 254.0320 14.34215919410094
IRIDIUM 141             
1 43077U 17083H   25295.43119446  .00000168  00000+0  52879-4 0  9994
2 43077  86.3958  61.3660 0002173  94.4962 265.6482 14.34216570410091
IRIDIUM 153             
1 43078U 17083J   25295.52291110  .00000134  00000+0  40674-4 0  9997
2 43078  86.4011  29.8106 0002457  92.6800 267.4677 14.34216465411217
IRIDIUM 131             
1 43079U 17083K   25295.41850909  .00000207  00000+0  66804-4 0  9997
2 43079  86.3963  61.5420 0002091  92.1770 267.9665 14.34215798410028
